satname,norad_id,inclination_deg,eccentricity,mean_motion_rev_per_day,perigee_km,apogee_km,l1,l2
STARLINK-1300,45374,53.0548,0.0001471,15.06398018,546.1989128230389,548.2363521559173,1 45374U 20019Q   25299.67497832 -.00001564  00000+0 -86132-4 0  9999,2 45374  53.0548  48.2327 0001471  97.8401 262.2755 15.06398018309538
STARLINK-1302,45375,53.0559,0.0001327,15.06391773,546.317775523501,548.1557697227545,1 45375U 20019R   25299.68973039  .00000241  00000+0  35088-4 0  9992,2 45375  53.0559  48.1674 0001327  84.1115 276.0026 15.06391773309531
STARLINK-1304,45376,53.054,0.0001304,15.06396882,546.3180474775982,548.1241808737741,1 45376U 20019S   25299.70815530  .00000020  00000+0  20264-4 0  9992,2 45376  53.0540  48.0831 0001304  87.9273 272.1865 15.06396882309531
STARLINK-1305,45377,53.0526,0.0001191,15.31157766,471.5409497376886,473.1727373712247,1 45377U 20019T   25299.91670139 -.00010081  00000+0 -31892-3 0  9998,2 45377  53.0526  45.6461 0001191  82.2234 241.4564 15.31157766  5731
STARLINK-1319,45379,53.0555,0.0001117,15.10952176,532.52282700247,534.0668408741712,1 45379U 20019V   25299.91670139  .01603133  00000+0  87274-1 0  9998,2 45379  53.0555  47.1173 0001117  62.6555 267.4415 15.10952176  5781
STARLINK-1266,45383,53.0562,0.0001368,15.06390786,546.292406119238,548.1871892110794,1 45383U 20019Z   25299.72843941  .00001979  00000+0  15172-3 0  9994,2 45383  53.0562  27.9962 0001368  84.7300 275.3845 15.06390786309811
STARLINK-1267,45384,53.0546,0.0001165,15.06428583,546.3171636436982,547.9307494465729,1 45384U 20019AA  25299.64740159  .00010773  00000+0  74047-3 0  9991,2 45384  53.0546  29.0154 0001165  89.4810 270.6313 15.06428583309795
STARLINK-1272,45386,53.0537,0.0001135,15.32879918,466.4480288277791,468.001925996653,1 45386U 20019AC  25299.91670139  .00056554  00000+0  17544-2 0  9998,2 45386  53.0537  25.8755 0001135  39.3793 238.5750 15.32879918  5780
STARLINK-1274,45387,53.0375,0.0003821,15.28547233,477.53382668431004,482.7749329567696,1 45387U 20019AD  25299.48979395  .00042852  00000+0  15258-2 0  9993,2 45387  53.0375  15.1145 0003821 220.8870 139.1842 15.28547233309976
STARLINK-1280,45388,53.0551,9.71e-05,15.36815388,454.8700529326725,456.19715176364934,1 45388U 20019AE  25299.91670139  .01665242  00000+0  41338-1 0  9998,2 45388  53.0551  45.5496 0000971  93.1137  42.6732 15.36815388  5741
STARLINK-1283,45389,53.0559,0.0002126,15.29595114,475.56433839481906,478.4791518932543,1 45389U 20019AF  25299.49987595  .00054853  00000+0  18851-2 0  9993,2 45389  53.0559  26.2987 0002126  22.8394 337.2699 15.29595114309824
STARLINK-1284,45390,53.0553,0.0001141,15.063961,546.4333272680678,548.0136945366567,1 45390U 20019AG  25299.66576492  .00006047  00000+0  42455-3 0  9994,2 45390  53.0553  28.2773 0001141  97.6691 262.4427 15.06396100309806
STARLINK-1292,45394,53.0451,0.0008074,15.91347261,293.1210984232175,303.90255094531767,1 45394U 20019AL  25299.91670139  .00351822  57680-4  10778-2 0  9996,2 45394  53.0451 340.1435 0008074   0.4914 212.0185 15.91347261  5858
STARLINK-1297,45395,53.0557,0.0001742,15.0639732,546.0133746148231,548.4261689141067,1 45395U 20019AM  25299.50358529 -.00005989  00000+0 -38351-3 0  9997,2 45395  53.0557  29.0038 0001742  86.9604 273.1585 15.06397320308965
STARLINK-1307,45397,53.0556,0.0001443,15.06380652,546.2715210525275,548.2701937601751,1 45397U 20019AP  25299.69526250 -.00000424  00000+0 -95781-5 0  9998,2 45397  53.0556  28.1423 0001443  88.8687 271.2468 15.06380652309638
STARLINK-1312,45398,53.0428,0.0005322,15.95036611,284.6645434274733,291.76020570176024,1 45398U 20019AQ  25299.91670139  .00498005  11153-3  12554-2 0  9993,2 45398  53.0428 339.4828 0005322 358.6266 110.8875 15.95036611  5943
STARLINK-1255,45399,53.0486,0.0001092,15.29828967,475.5746239312284,477.07163802383366,1 45399U 20019AR  25299.91670139 -.00006528  00000+0 -21090-3 0  9992,2 45399  53.0486  15.4535 0001092  49.6029  39.3315 15.29828967  5739
STARLINK-1259,45403,53.0375,0.000309,16.227481,210.0646587267056,214.13742583683506,1 45403U 20019AV  25299.23929139  .02701613  11902-4  10932-2 0  9997,2 45403  53.0375 320.9207 0003090  32.1424 327.9803 16.22748100310515
STARLINK-1260,45404,53.0563,0.000143,15.06390904,546.2491071781433,548.2297648388421,1 45404U 20019AW  25299.49714363 -.00000802  00000+0 -34990-4 0  9993,2 45404  53.0563  19.0320 0001430  88.0736 272.0416 15.06390904309636
STARLINK-1263,45405,53.0552,0.0001266,15.06393739,546.3539955112119,548.1074986247695,1 45405U 20019AX  25299.54874244  .00002996  00000+0  21996-3 0  9990,2 45405  53.0552  18.8026 0001266  83.4677 276.6456 15.06393739309649
STARLINK-1265,45406,53.0555,0.0001434,15.06378678,546.2838032138161,548.2700119225074,1 45406U 20019AY  25299.62247105  .00004748  00000+0  33761-3 0  9990,2 45406  53.0555  18.4716 0001434  85.3109 274.8044 15.06378678309652
STARLINK-1278,45408,53.0536,6.68e-05,15.32254897,468.628980832912,469.54376987585965,1 45408U 20019BA  25299.91670139  .00044103  00000+0  14000-2 0  9994,2 45408  53.0536  45.7998 0000668  64.0749 282.3658 15.32254897  5743
STARLINK-1296,45412,53.0545,0.0001291,15.06389523,546.3496019761023,548.1377352647405,1 45412U 20019BE  25299.62614394  .00003388  00000+0  24632-3 0  9991,2 45412  53.0545  18.4529 0001291  94.3418 265.7718 15.06389523309652
STARLINK-1298,45413,53.0493,0.0007594,15.51246749,407.9276048446718,418.2421126037025,1 45413U 20019BF  25299.42215593  .00087206  00000+0  14538-2 0  9992,2 45413  53.0493 357.1382 0007594 285.7656  74.2515 15.51246749310031
STARLINK-1309,45414,53.0553,0.0001292,15.06394574,546.3334307144314,548.1229450789833,1 45414U 20019BG  25299.70723640  .00007287  00000+0  50763-3 0  9993,2 45414  53.0553  18.0905 0001292  84.4578 275.6558 15.06394574309659
STARLINK-1316,45415,53.0557,0.0001411,15.06386902,546.2745293668795,548.2288740585027,1 45415U 20019BH  25299.60034513 -.00000770  00000+0 -32787-4 0  9996,2 45415  53.0557  18.5708 0001411 107.2783 252.8360 15.06386902309671
STARLINK-1318,45416,53.0522,0.0004467,15.59699387,385.5037337260046,391.54907080958947,1 45416U 20019BJ  25299.43475288  .00047083  00000+0  58128-3 0  9998,2 45416  53.0522 348.8940 0004467  20.5415 339.5776 15.59699387310065
STARLINK-1286,45417,53.0536,0.0001636,15.26356287,485.59269093911644,487.8388707690119,1 45417U 20019BK  25299.91670139  .01079213  00000+0  37965-1 0  9999,2 45417  53.0536  46.2384 0001636  82.1811  97.1958 15.26356287  5749
STARLINK-1308,45419,53.0539,0.0001224,15.06389563,546.3958794459313,548.0912126035973,1 45419U 20019BM  25299.70078419  .00000865  00000+0  76993-4 0  9994,2 45419  53.0539  48.1156 0001224  94.4691 265.6437 15.06389563309277
STARLINK-1329,45531,53.0553,0.0001384,15.06386093,546.2957070787352,548.2126553576954,1 45531U 20025A   25299.53674973 -.00001686  00000+0 -94355-4 0  9990,2 45531  53.0553 348.8554 0001384  85.9968 274.1179 15.06386093304873
STARLINK-1338,45532,53.0572,0.000161,15.06394362,546.1138537502893,548.3438215500137,1 45532U 20025B   25299.54782373  .00000739  00000+0  68539-4 0  9997,2 45532  53.0572 348.8016 0001610 108.1555 251.9609 15.06394362304879
STARLINK-1350,45535,53.0747,0.0001437,15.32109334,468.5360552280299,470.504071868093,1 45535U 20025E   25299.72330271  .00012274  00000+0  40149-3 0  9999,2 45535  53.0747 300.4489 0001437  54.1412 305.9722 15.32109334305591
STARLINK-1362,45538,53.0555,0.0001319,15.06391533,546.3240512977236,548.1509650929847,1 45538U 20025H   25299.44732492 -.00002115  00000+0 -12317-3 0  9993,2 45538  53.0555 348.9747 0001319  98.9927 261.1211 15.06391533304861
STARLINK-1368,45540,53.0551,0.0001425,15.06396928,546.2341096806495,548.207836703009,1 45540U 20025K   25299.45199493  .00002869  00000+0  21141-3 0  9994,2 45540  53.0551 349.2360 0001425  84.3729 275.7422 15.06396928304859
STARLINK-1371,45542,53.0557,0.0001305,15.06401263,546.3039295462295,548.1114445095445,1 45542U 20025M   25299.42250069  .00001357  00000+0  11000-3 0  9994,2 45542  53.0557 349.3670 0001305  90.8906 269.2232 15.06401263304854
STARLINK-1372,45543,53.0562,0.000168,15.06389945,546.0789115014713,548.4058389715492,1 45543U 20025N   25299.52570777 -.00000291  00000+0 -63665-6 0  9992,2 45543  53.0562 348.9050 0001680  86.8904 273.2278 15.06389945303965
STARLINK-1373,45544,53.0553,0.0001355,15.06396668,546.2833839438617,548.1601561705475,1 45544U 20025P   25299.54414443  .00000319  00000+0  40344-4 0  9998,2 45544  53.0553 348.8200 0001355  93.5810 266.5334 15.06396668304871
STARLINK-1294,45551,53.0499,0.0008226,15.58612576,386.1027608797076,397.24044999737544,1 45551U 20025W   25299.68743904  .00071307  00000+0  91028-3 0  9997,2 45551  53.0499 283.1151 0008226  38.3869 321.7726 15.58612576305819
STARLINK-1325,45554,53.0565,0.0001726,15.58232292,391.6043419324751,393.9416600648192,1 45554U 20025Z   25299.91670139  .00323406  00000+0  40405-2 0  9997,2 45554  53.0565 274.9581 0001726 115.3072 260.3276 15.58232292  5910
STARLINK-1327,45555,53.055,0.0001373,15.06414255,546.2170244024173,548.1187131193792,1 45555U 20025AA  25299.78186463  .00005228  00000+0  36947-3 0  9991,2 45555  53.0550 327.7537 0001373  87.5582 272.5564 15.06414255305188
STARLINK-1356,45564,53.0574,0.0001527,15.06395581,546.1675987770232,548.282604362842,1 45564U 20025AK  25299.78556610  .00000130  00000+0  27641-4 0  9995,2 45564  53.0574 327.7377 0001527  96.2108 263.9055 15.06395581305187
STARLINK-1357,45565,53.0636,0.0006813,15.31208761,467.53760677147693,476.87188243267246,1 45565U 20025AL  25299.36803082  .00069624  00000+0  22675-2 0  9991,2 45565  53.0636 315.5684 0006813 325.8439  34.2122 15.31208761305325
STARLINK-1361,45567,53.0544,0.0001488,15.06400615,546.1791814675444,548.2401646374456,1 45567U 20025AN  25299.80399270  .00003699  00000+0  26707-3 0  9992,2 45567  53.0544 327.6534 0001488  85.0879 275.0280 15.06400615305198
